ORBCOMM FM33            
1 25983U 99065D   25344.42382909  .00001547  00000+0  52586-3 0  9996
2 25983  45.0268 240.7846 0007697 237.2833 122.7275 14.40520781361471
ORBCOMM FM36            
1 25984U 99065E   25344.33798565  .00002177  00000+0  74896-3 0  9994
2 25984  45.0393 335.7927 0000623 117.2365 242.8547 14.38699901359780
ORBCOMM FM35            
1 25985U 99065F   25344.37758469  .00001894  00000+0  67210-3 0  9995
2 25985  45.0399 342.0710 0004618 228.2316 131.8138 14.37610026360139
ORBCOMM FM34            
1 25986U 99065G   25344.41360595  .00001622  00000+0  58294-3 0  9991
2 25986  45.0400 342.3677 0002840 184.3173 175.7652 14.37561519360259
ORBCOMM FM38            
1 33060U 08031A   25344.28602384  .00002781  00000+0  37136-3 0  9995
2 33060  48.4376 195.5168 0004386  83.5286 276.6129 14.82246327940863
ORBCOMM FM41            
1 33061U 08031B   25344.37205023  .00002785  00000+0  37571-3 0  9992
2 33061  48.4413 203.5095 0003570  65.9292 104.1947 14.81804403940351
ORBCOMM FM29            
1 33062U 08031C   25344.06934486  .00002817  00000+0  37849-3 0  9995
2 33062  48.4368 212.5270 0005314  63.5438  89.6935 14.81948717940227
ORBCOMM FM39            
1 33063U 08031D   25344.04647232  .00002645  00000+0  37019-3 0  9992
2 33063  48.4389 238.8986 0006373  30.9185 329.2104 14.80390089939848
